STARLINK-3105
1 19440C 21104AJ  21326.14705538 -.00822531  00000-0 -30331-2 0  3265
2 19440  53.2176  90.8192 0025468  65.1898 237.2320 15.87744699    18
